NORAD_CAT_ID,OBJECT_NAME,OBJECT_TYPE,EPOCH,MEAN_MOTION,ECCENTRICITY,INCLINATION,RA_OF_ASC_NODE,ARG_OF_PERICENTER,MEAN_ANOMALY,BSTAR,MEAN_MOTION_DOT,MEAN_MOTION_DDOT,TLE_LINE0,TLE_LINE1,TLE_LINE2,SEMIMAJOR_AXIS,PERIOD,APOGEE,PERIGEE,DECAYED
53902.0,STARLINK-5021,PAYLOAD,2024-05-12 09:47:40,15.08712758,0.0001369,53.2171,24.9333,79.6479,280.4668,0.00094948,0.00014803,0.0,0 STARLINK-5021,1 53902U 22119S   24133.40811319  .00014803  00000-0  94948-3 0  9997,2 53902  53.2171  24.9333 0001369  79.6479 280.4668 15.08712758 91384,6918.269,95.446,541.081,539.187,0.0
53902.0,STARLINK-5021,PAYLOAD,2024-05-12 22:30:49,15.08807575,0.0001878,53.2167,22.5536,133.3917,226.7232,0.0065502,0.00105429,0.0,0 STARLINK-5021,1 53902U 22119S   24133.93807189  .00105429  00000-0  65502-2 0  9993,2 53902  53.2167  22.5536 0001878 133.3917 226.7232 15.08807575 91885,6917.98,95.44,541.144,538.545,0.0
53902.0,STARLINK-5021,PAYLOAD,2024-05-13 00:06:12,15.08825407,0.0001456,53.2157,22.2586,113.1271,246.9874,0.0068461,0.00110334,0.0,0 STARLINK-5021,1 53902U 22119S   24134.00431461  .00110334  00000-0  68461-2 0  9996,2 53902  53.2157  22.2586 0001456 113.1271 246.9874 15.08825407 91472,6917.925,95.438,540.797,538.783,0.0
53902.0,STARLINK-5021,PAYLOAD,2024-05-13 09:38:30,15.08882853,0.0001404,53.2164,20.4729,95.6402,264.475,0.0024074,0.00038279,0.0,0 STARLINK-5021,1 53902U 22119S   24134.40174424  .00038279  00000-0  24074-2 0  9992,2 53902  53.2164  20.4729 0001404  95.6402 264.4750 15.08882853 91535,6917.749,95.435,540.586,538.643,0.0
53902.0,STARLINK-5021,PAYLOAD,2024-05-13 16:00:02,15.08894812,0.0001313,53.2156,19.2839,95.0839,265.0303,0.0018686,0.00029621,0.0,0 STARLINK-5021,1 53902U 22119S   24134.66669513  .00029621  00000-0  18686-2 0  9991,2 53902  53.2156  19.2839 0001313  95.0839 265.0303 15.08894812 91990,6917.713,95.434,540.486,538.67,0.0
53902.0,STARLINK-5021,PAYLOAD,2024-05-14 09:29:14,15.08926718,8.95e-05,53.2157,16.0113,69.6005,290.5083,0.0015138,0.00023944,0.0,0 STARLINK-5021,1 53902U 22119S   24135.39530143  .00023944  00000-0  15138-2 0  9999,2 53902  53.2157  16.0113 0000895  69.6005 290.5083 15.08926718 91682,6917.615,95.432,540.099,538.861,0.0
53902.0,STARLINK-5021,PAYLOAD,2024-05-14 22:12:18,15.08883256,0.0001371,53.2171,13.6305,92.5534,267.5615,0.0016294,0.0002577,0.0,0 STARLINK-5021,1 53902U 22119S   24135.92521118  .00025770  00000-0  16294-2 0  9993,2 53902  53.2171  13.6305 0001371  92.5534 267.5615 15.08883256 92186,6917.748,95.435,540.562,538.665,0.0
53902.0,STARLINK-5021,PAYLOAD,2024-05-15 06:00:00,15.08873584,0.0001323,53.2162,12.1747,90.6615,234.7309,-0.0052814,-0.00083444,0.0,0 STARLINK-5021,1 53902U 22119S   24136.25001157 -.00083444  00000-0 -52814-2 0  9998,2 53902  53.2162  12.1747 0001323  90.6615 234.7309 15.08873584 91814,6917.778,95.435,540.558,538.728,0.0
53902.0,STARLINK-5021,PAYLOAD,2024-05-15 14:00:01,15.08797068,0.0001379,53.2165,10.6768,109.6745,227.325,0.0047875,0.00076644,0.0,0 STARLINK-5021,1 53902U 22119S   24136.58334491  .00076644  00000-0  47875-2 0  9997,2 53902  53.2165  10.6768 0001379 109.6745 227.3250 15.08797068 91869,6918.012,95.44,540.831,538.923,0.0
53902.0,STARLINK-5021,PAYLOAD,2024-05-15 22:00:00,15.08880683,0.0001305,53.2166,9.1821,96.5105,252.0762,-0.0033619,-0.00053454,0.0,0 STARLINK-5021,1 53902U 22119S   24136.91667824 -.00053454  00000-0 -33619-2 0  9990,2 53902  53.2166   9.1821 0001305  96.5105 252.0762 15.08880683  5860,6917.756,95.435,540.524,538.718,0.0
53902.0,STARLINK-5021,PAYLOAD,2024-05-16 01:13:50,15.08862592,0.0001457,53.2177,8.574,107.8742,252.2409,0.00085063,0.00013284,0.0,0 STARLINK-5021,1 53902U 22119S   24137.05127447  .00013284  00000-0  85063-3 0  9994,2 53902  53.2177   8.5740 0001457 107.8742 252.2409 15.08862592 91938,6917.811,95.436,540.684,538.668,0.0
53902.0,STARLINK-5021,PAYLOAD,2024-05-16 15:32:18,15.08857924,0.0001818,53.2174,5.8942,111.0885,249.0301,0.0006801,0.00010558,0.0,0 STARLINK-5021,1 53902U 22119S   24137.64743423  .00010558  00000-0  68010-3 0  9991,2 53902  53.2174   5.8942 0001818 111.0885 249.0301 15.08857924 92024,6917.826,95.436,540.948,538.433,0.0
53902.0,STARLINK-5021,PAYLOAD,2024-05-16 21:53:51,15.08838981,5.25e-05,53.219,4.7096,60.1834,299.921,0.00051463,7.912e-05,0.0,0 STARLINK-5021,1 53902U 22119S   24137.91239777  .00007912  00000-0  51463-3 0  9997,2 53902  53.2190   4.7096 0000525  60.1834 299.9210 15.08838981 92487,6917.884,95.438,540.112,539.385,0.0
53902.0,STARLINK-5021,PAYLOAD,2024-05-17 21:44:39,15.08823874,0.0003938,53.218,0.2479,291.1861,68.871,0.00021013,3.056e-05,0.0,0 STARLINK-5021,1 53902U 22119S   24138.90601124  .00003056  00000-0  21013-3 0  9999,2 53902  53.2180   0.2479 0003938 291.1861  68.8710 15.08823874 92213,6917.93,95.439,542.519,537.07,0.0
53902.0,STARLINK-5021,PAYLOAD,2024-05-18 07:16:58,15.0883666,0.0002049,53.2185,358.465,91.961,268.1616,0.00028592,4.265e-05,0.0,0 STARLINK-5021,1 53902U 22119S   24139.30344953  .00004265  00000-0  28592-3 0  9990,2 53902  53.2185 358.4650 0002049  91.9610 268.1616 15.08836660 92270,6917.891,95.438,541.173,538.338,0.0
53902.0,STARLINK-5021,PAYLOAD,2024-05-18 21:35:25,15.08862618,9.4e-05,53.2142,355.789,338.6935,21.4018,0.00060785,9.405e-05,0.0,0 STARLINK-5021,1 53902U 22119S   24139.89960045  .00009405  00000-0  60785-3 0  9991,2 53902  53.2142 355.7890 0000940 338.6935  21.4018 15.08862618 92782,6917.811,95.436,540.327,539.026,0.0
53902.0,STARLINK-5021,PAYLOAD,2024-05-19 19:50:50,15.08838915,0.0001211,53.2167,351.6266,74.5018,285.6108,9.1607e-06,-1.42e-06,0.0,0 STARLINK-5021,1 53902U 22119S   24140.82696763 -.00000142  00000-0  91607-5 0  9998,2 53902  53.2167 351.6266 0001211  74.5018 285.6108 15.08838915 92508,6917.884,95.438,540.586,538.911,0.0
53902.0,STARLINK-5021,PAYLOAD,2024-05-20 00:36:59,15.08831801,0.0001431,53.2165,350.7337,109.6648,250.4499,-0.00015816,-2.804e-05,0.0,0 STARLINK-5021,1 53902U 22119S   24141.02568827 -.00002804  00000-0 -15816-3 0  9994,2 53902  53.2165 350.7337 0001431 109.6648 250.4499 15.08831801 92957,6917.905,95.438,540.76,538.78,0.0
53902.0,STARLINK-5021,PAYLOAD,2024-05-20 21:17:00,15.08841634,0.000125,53.2157,346.8691,106.7992,253.3137,-4.9722e-05,-1.079e-05,0.0,0 STARLINK-5021,1 53902U 22119S   24141.88680891 -.00001079  00000-0 -49722-4 0  9991,2 53902  53.2157 346.8691 0001250 106.7992 253.3137 15.08841634 92660,6917.875,95.437,540.605,538.876,0.0
53902.0,STARLINK-5021,PAYLOAD,2024-05-21 19:32:24,15.0884264,0.0001315,53.2168,342.7045,114.6507,245.4622,0.00031801,4.777e-05,0.0,0 STARLINK-5021,1 53902U 22119S   24142.81417154  .00004777  00000-0  31801-3 0  9999,2 53902  53.2168 342.7045 0001315 114.6507 245.4622 15.08842640 93224,6917.872,95.437,540.647,538.828,0.0
53902.0,STARLINK-5021,PAYLOAD,2024-05-21 22:43:10,15.08846897,0.0001321,53.2165,342.1098,113.1912,246.9219,0.00036935,5.596e-05,0.0,0 STARLINK-5021,1 53902U 22119S   24142.94665055  .00005596  00000-0  36935-3 0  9991,2 53902  53.2165 342.1098 0001321 113.1912 246.9219 15.08846897 92825,6917.859,95.437,540.638,538.81,0.0
53902.0,STARLINK-5021,PAYLOAD,2024-05-22 19:23:11,15.08841571,0.0001267,53.2175,338.2339,100.5247,259.5888,7.3494e-05,8.82e-06,0.0,0 STARLINK-5021,1 53902U 22119S   24143.80777197  .00000882  00000-0  73494-4 0  9993,2 53902  53.2175 338.2339 0001267 100.5247 259.5888 15.08841571 92950,6917.876,95.437,540.617,538.864,0.0
53902.0,STARLINK-5021,PAYLOAD,2024-05-22 22:33:57,15.08839363,0.0001285,53.2174,337.6454,110.122,249.991,3.6301e-05,2.9e-06,0.0,0 STARLINK-5021,1 53902U 22119S   24143.94025376  .00000290  00000-0  36301-4 0  9992,2 53902  53.2174 337.6454 0001285 110.1220 249.9910 15.08839363 93392,6917.882,95.438,540.636,538.858,0.0
53902.0,STARLINK-5021,PAYLOAD,2024-05-23 19:13:58,15.08844829,0.0001511,53.2184,333.7813,114.5497,245.5653,0.00011026,1.467e-05,0.0,0 STARLINK-5021,1 53902U 22119S   24144.80137068  .00001467  00000-0  11026-3 0  9993,2 53902  53.2184 333.7813 0001511 114.5497 245.5653 15.08844829 93529,6917.866,95.437,540.776,538.685,0.0
53902.0,STARLINK-5021,PAYLOAD,2024-05-24 19:04:48,15.08803036,6.77e-05,53.2174,329.3228,80.4931,279.6137,-0.0002183,-3.756e-05,0.0,0 STARLINK-5021,1 53902U 22119S   24145.79500375 -.00003756  00000-0 -21830-3 0  9996,2 53902  53.2174 329.3228 0000677  80.4931 279.6137 15.08803036 93255,6917.993,95.44,540.327,539.39,0.0
53902.0,STARLINK-5021,PAYLOAD,2024-05-24 22:15:31,15.08842406,9.37e-05,53.2176,328.7296,92.915,267.1949,9.3273e-05,1.197e-05,0.0,0 STARLINK-5021,1 53902U 22119S   24145.92745235  .00001197  00000-0  93273-4 0  9993,2 53902  53.2176 328.7296 0000937  92.9150 267.1949 15.08842406 93690,6917.873,95.437,540.386,539.09,0.0
53902.0,STARLINK-5021,PAYLOAD,2024-05-25 18:55:34,15.08823806,0.0001128,53.218,324.8702,96.9207,263.1914,-8.872e-05,-1.699e-05,0.0,0 STARLINK-5021,1 53902U 22119S   24146.78859181 -.00001699  00000-0 -88720-4 0  9994,2 53902  53.2180 324.8702 0001128  96.9207 263.1914 15.08823806 93404,6917.93,95.439,540.575,539.015,0.0
53902.0,STARLINK-5021,PAYLOAD,2024-05-26 04:27:38,15.09038368,7.29e-05,53.2189,323.094,237.9079,122.1843,0.0014597,0.00023146,0.0,0 STARLINK-5021,1 53902U 22119S   24147.18585965  .00023146  00000-0  14597-2 0  9993,2 53902  53.2189 323.0940 0000729 237.9079 122.1843 15.09038368 93461,6917.274,95.425,539.643,538.635,0.0
53902.0,STARLINK-5021,PAYLOAD,2024-05-26 20:21:40,15.0888107,0.0001075,53.2171,320.1055,53.5206,306.5885,0.00041533,6.336e-05,0.0,0 STARLINK-5021,1 53902U 22119S   24147.84838646  .00006336  00000-0  41533-3 0  9996,2 53902  53.2171 320.1055 0001075  53.5206 306.5885 15.08881070 93566,6917.755,95.435,540.364,538.876,0.0
53902.0,STARLINK-5021,PAYLOAD,2024-05-27 04:18:38,15.08840925,0.0001049,53.2178,318.6158,89.2693,270.842,0.00016676,2.367e-05,0.0,0 STARLINK-5021,1 53902U 22119S   24148.17961750  .00002367  00000-0  16676-3 0  9996,2 53902  53.2178 318.6158 0001049  89.2693 270.8420 15.08840925 93614,6917.878,95.437,540.468,539.017,0.0
